SCS-01 A                
1 63982U 25100A   25160.45573264  .00003846  00000+0  18980-3 0  9995
2 63982  97.4057 235.6909 0009125 223.7747 136.2765 15.18460306  4003
SCS-01 B                
1 63983U 25100B   25160.45227746  .00012330  00000+0  57529-3 0  9997
2 63983  97.4056 235.6941 0014384 168.3011 191.8561 15.19898068  3988
SCS-01 C                
1 63984U 25100C   25159.73197211  .00003143  00000+0  15063-3 0  9999
2 63984  97.4054 234.9768 0011943 209.4191 150.6373 15.19591269  3875
SCS-01 D                
1 63985U 25100D   25160.68376914  .00011055  00000+0  52294-3 0  9993
2 63985  97.4054 235.9142 0013330 159.6007 356.1274 15.19461120  4019
SCS-01 E                
1 63986U 25100E   25159.53515012  .00013085  00000+0  61600-3 0  9996
2 63986  97.4030 234.7749 0014696 171.5914 188.5570 15.19568295  3847
SCS-01 F                
1 63987U 25100F   25159.65337434  .00013329  00000+0  58256-3 0  9994
2 63987  97.4032 234.9231 0013921 173.2268 186.9159 15.22127839  3865
SCS-01 G                
1 63988U 25100G   25159.85385913  .00014861  00000+0  65703-3 0  9999
2 63988  97.4073 235.1270 0014599 172.0936 188.0533 15.21702430  3895
SCS-01 H                
1 63989U 25100H   25160.45158269  .00015611  00000+0  70814-3 0  9993
2 63989  97.4084 235.7057 0014802 172.2192 187.9276 15.20808637  3987
SCS-01 J                
1 63990U 25100J   25160.45834401  .00017499  00000+0  82502-3 0  9997
2 63990  97.4028 235.6783 0013165 166.3034 193.8561 15.19471148  3964
SCS-01 K                
1 63991U 25100K   25160.45294601  .00015280  00000+0  71132-3 0  9993
2 63991  97.4034 235.6865 0014557 179.6133 180.5116 15.19922836  3971
SCS-01 L                
1 63992U 25100L   25160.45380505  .00014021  00000+0  65355-3 0  9995
2 63992  97.4059 235.6947 0014218 168.2540 191.9030 15.19903128  3963
SCS-01 M                
1 63993U 25100M   25160.45804138  .00016031  00000+0  75570-3 0  9992
2 63993  97.4063 235.6896 0014399 177.2997 182.8318 15.19481194  3971
STARLINK-33871          
1 63994U 25101A   25158.12281692 -.00291619  00000+0 -56845-2 0  9991
2 63994  42.9993 116.5744 0002502 283.4479  76.6101 15.47794326  4815
STARLINK-34154          
1 63995U 25101B   25158.18647590 -.00277586  00000+0 -52509-2 0  9991
2 63995  42.9994 116.1904 0001997 269.9759  90.0871 15.48599724  4896
STARLINK-34158          
1 63996U 25101C   25159.58620230  .00089465  00000+0  15086-2 0  9993
2 63996  43.0000 109.5478 0001979 247.3653 112.6998 15.50668544  5096
STARLINK-34165          
1 63997U 25101D   25158.24973934  .00066338  00000+0  11817-2 0  9990
2 63997  42.9990 115.8055 0004613  49.4322 310.6939 15.49230492  4905
STARLINK-34150          
1 63998U 25101E   25158.89667941  .00067169  00000+0  13476-2 0  9996
2 63998  42.9978 112.0615 0001096 182.2321 177.8533 15.45812138  3833
STARLINK-34169          
1 63999U 25101F   25157.92849708 -.00861152  00000+0 -18484-1 0  9992
2 63999  42.9987 117.6962 0014823  82.7029 277.5514 15.46470490  4853
STARLINK-34152          
1 64000U 25101G   25160.18078785  .00087462  00000+0  15415-2 0  9991
2 64000  43.0007 104.4944 0018008 271.3575  88.5222 15.49255164  5205
STARLINK-33927          
1 64001U 25101H   25158.25002315 -.00239307  00000+0 -41857-2 0  9991
2 64001  42.9995 115.7966 0001932 269.9834  95.8244 15.50666634  3683
STARLINK-33898          
1 64002U 25101J   25159.08335648 -.01068285  00000+0 -19862-1 0  9998
2 64002  42.9996 110.9135 0001974 262.9634  84.0077 15.50872259  3773
STARLINK-33928          
1 64003U 25101K   25159.75001157 -.01621081  00000+0 -33840-1 0  9999
2 64003  42.9997 107.0257 0001292 270.4559 196.7452 15.47900179  3845
STARLINK-33758          
1 64004U 25101L   25159.41668981 -.00027315  00000+0 -46109-3 0  9990
2 64004  42.9999 108.9484 0001957 270.6729 144.9744 15.50596196  3796
STARLINK-33936          
1 64005U 25101M   25160.00002315 -.01656320  00000+0 -31972-1 0  9996
2 64005  42.9999 105.5430 0001313 258.2919 175.4488 15.50173081  5127
STARLINK-33931          
1 64006U 25101N   25160.00002315 -.00045730  00000+0 -77778-3 0  9999
2 64006  43.0001 105.5332 0001482 265.8799 171.7897 15.50595012  3743
STARLINK-33759          
1 64007U 25101P   25160.00002315 -.00006759  00000+0 -10948-3 0  9994
2 64007  43.0002 105.5282 0001594 265.4385 174.1296 15.50580480  4924
STARLINK-34163          
1 64008U 25101Q   25160.00002315 -.00008086  00000+0 -13216-3 0  9991
2 64008  43.0002 105.5233 0001679 263.3891 178.0973 15.50577287  5101
STARLINK-34077          
1 64009U 25101R   25160.00002315 -.00013205  00000+0 -21962-3 0  9998
2 64009  43.0003 105.5185 0001484 265.5952 177.8053 15.50581267  5025
STARLINK-34113          
1 64010U 25101S   25157.50002315 -.00019181  00000+0 -32188-3 0  9992
2 64010  42.9992 120.1334 0002249 271.3764 242.1244 15.50580168  4731
STARLINK-34193          
1 64011U 25101T   25158.58335648 -.00076550  00000+0 -13099-2 0  9992
2 64011  42.9999 113.7914 0002129 267.9868 181.8591 15.50617512  4888
STARLINK-34078          
1 64012U 25101U   25160.00002315 -.00018852  00000+0 -31617-3 0  9993
2 64012  43.0004 105.5039 0001567 268.9492 180.2098 15.50589380  5072
STARLINK-34182          
1 64013U 25101V   25160.00002315 -.00005391  00000+0 -86144-4 0  9994
2 64013  43.0002 105.4994 0001495 267.8828 183.1891 15.50576861  5074
STARLINK-34192          
1 64014U 25101W   25159.00002315 -.00038058  00000+0 -64605-3 0  9996
2 64014  42.9992 111.3431 0001807 267.5511 356.7063 15.50577656  4875
STARLINK-34093          
1 64015U 25101X   25158.41668981  .00013340  00000+0  23284-3 0  9991
2 64015  42.9995 114.7488 0001452 277.3766 328.6826 15.50576820  4883
STARLINK-34016          
1 64016U 25101Y   25160.00002315 -.00005764  00000+0 -92511-4 0  9996
2 64016  43.0003 105.4847 0001450 264.1472 192.6711 15.50576911  5118
STARLINK-34161          
1 64017U 25101Z   25157.00002315  .00017215  00000+0  29918-3 0  9995
2 64017  42.9996 123.0196 0001958 266.9626 347.4332 15.50525352  3485
STARLINK-34162          
1 64018U 25101AA  25158.25002315  .00028190  00000+0  48475-3 0  9997
2 64018  42.9995 115.7052 0001771 273.8451 128.4177 15.50569928  3694
STARLINK-34155          
1 64019U 25101AB  25158.58335648 -.00008956  00000+0 -14698-3 0  9992
2 64019  42.9996 113.7483 0002260 273.9525 193.1452 15.50582674  4812
STARLINK-34141          
1 64020U 25101AC  25158.58335648 -.00081875  00000+0 -14018-2 0  9990
2 64020  42.9999 113.7430 0002180 270.3468 198.6543 15.50628845  4954
STARLINK-34062          
1 64021U 25101AD  25158.41668981  .00047477  00000+0  81050-3 0  9991
2 64021  42.9993 114.7387 0001503 278.9210 330.9199 15.50568024  3711
STARLINK-34051          
1 64022U 25102A   25158.25002315 -.01516619  00000+0 -29768-1 0  9996
2 64022  69.9998  94.6398 0003585 274.8053   8.5524 15.50009706  4556
STARLINK-34184          
1 64023U 25102B   25157.91668981 -.00047234  00000+0 -76859-3 0  9992
2 64023  70.0001  95.5446 0003296 268.3023 319.8101 15.52555464  3639
STARLINK-34087          
1 64024U 25102C   25158.16668981  .00030296  00000+0  49345-3 0  9999
2 64024  70.0001  94.8619 0003495 277.6465 265.4260 15.52509034  4420
STARLINK-34088          
1 64025U 25102D   25159.16668981  .00012527  00000+0  20597-3 0  9996
2 64025  70.0005  92.1186 0003307 272.5660 101.7581 15.52524955  3783
STARLINK-33992          
1 64026U 25102E   25158.00002315 -.00031766  00000+0 -51520-3 0  9990
2 64026  70.0001  95.3116 0003377 270.0032  67.5652 15.52543899  3642
STARLINK-33967          
1 64027U 25102F   25160.16667824  .00027090  00000+0  44155-3 0  9992
2 64027  70.0010  89.3746 0003369 271.1735 294.3285 15.52519676  4793
STARLINK-33953          
1 64028U 25102G   25158.84095902  .00086433  00000+0  13909-2 0  9995
2 64028  70.0001  93.0033 0003653 276.5056  83.5715 15.52548443  4808
STARLINK-33790          
1 64029U 25102H   25157.75002315  .00063529  00000+0  10280-2 0  9991
2 64029  69.9998  95.9898 0003287 267.5825 118.8904 15.52495373  3600
STARLINK-34030          
1 64030U 25102J   25158.91667824 -.01492661  00000+0 -26986-1 0  9999
2 64030  70.0007  92.7919 0003340 274.5238 152.4265 15.52753903  4725
STARLINK-34024          
1 64031U 25102K   25158.83993162  .00060454  00000+0  97719-3 0  9990
2 64031  70.0005  92.9992 0003456 278.1063  81.9732 15.52539403  4644
STARLINK-34019          
1 64032U 25102L   25158.00002315 -.00043789  00000+0 -71225-3 0  9999
2 64032  70.0003  95.2934 0003429 274.6842  78.2190 15.52546157  3630
STARLINK-33860          
1 64033U 25102M   25159.16668981 -.00011274  00000+0 -18069-3 0  9996
2 64033  70.0006  92.1026 0003302 272.7814 114.9575 15.52532977  3821
STARLINK-33946          
1 64034U 25102N   25158.90574749 -.00281077  00000+0 -54948-2 0  9991
2 64034  69.9998  92.8275 0003825 274.1913  85.8834 15.48283942  4766
STARLINK-34046          
1 64035U 25102P   25159.33336806 -.01928709  00000+0 -80568-2 0  9998
2 64035  69.9880  90.2779 0003694 268.7298  43.2055 15.88612858  3855
STARLINK-34085          
1 64036U 25102Q   25158.90264769  .00105985  00000+0  17017-2 0  9998
2 64036  70.0000  92.8164 0003441 288.6763  71.4050 15.52533275  4717
STARLINK-34008          
1 64037U 25102R   25157.08335648 -.01478642  00000+0 -25621-1 0  9997
2 64037  69.9995  97.7986 0003537 271.2126   4.6334 15.53884970  4378
STARLINK-34079          
1 64038U 25102S   25158.90195877  .00083355  00000+0  13419-2 0  9991
2 64038  70.0001  92.8135 0003575 274.9101  85.1678 15.52550570  4805
STARLINK-34089          
1 64039U 25102T   25156.91668981 -.01623850  00000+0 -27271-1 0  9995
2 64039  69.9998  98.2517 0003704 271.5013 155.9152 15.54521372  4343
STARLINK-34117          
1 64040U 25102U   25160.38317480  .00059103  00000+0  95476-3 0  9993
2 64040  70.0012  88.7511 0003244 276.0522  84.0295 15.52563695  4822
